start=new Date('2022-04-26T00:00:00.000Z').valueOf();
sats=[{"EPOCH":"2022-04-25T22:00:00.999936","LAUNCH_DATE":"2022-02-21","BSTAR":"-0.00586060000000","ELEMENT_SET_NO":"999","ECCENTRICITY":"0.00028190","MEAN_ELEMENT_THEORY":"SGP4","COUNTRY_CODE":"US","MEAN_MOTION_DDOT":"0.0000000000000","OBJECT_ID":"2022-016AX","NORAD_CAT_ID":"51759","REV_AT_EPOCH":"370","SEMIMAJOR_AXIS":"6731.450","PERIOD":"91.606","INCLINATION":"53.2175","ARG_OF_PERICENTER":"9.9935","REF_FRAME":"TEME","MEAN_ANOMALY":"47.7668","OBJECT_NAME":"STARLINK-3456","TLE_LINE1":"1 51759U 22016AX  22115.91667824 -.00717474  00000-0 -58606-2 0  9991","DECAY_DATE":null,"MEAN_MOTION_DOT":"-0.00717474","TIME_SYSTEM":"UTC","CENTER_NAME":"EARTH","GP_ID":"202030517","TLE_LINE2":"2 51759  53.2175 186.1785 0002819   9.9935  47.7668 15.71954113  3708","PERIAPSIS":"351.417","RA_OF_ASC_NODE":"186.1785","RCS_SIZE":"LARGE","EPHEMERIS_TYPE":"0","OBJECT_TYPE":"PAYLOAD","APOAPSIS":"355.212","CLASSIFICATION_TYPE":"U","SITE":"AFETR","FILE":"3416090","MEAN_MOTION":"15.71954113"},{"SITE":"AFWTR","FILE":"3416090","CLASSIFICATION_TYPE":"U","MEAN_MOTION":"15.54470973","APOAPSIS":"404.635","EPHEMERIS_TYPE":"0","OBJECT_TYPE":"PAYLOAD","RCS_SIZE":"MEDIUM","TLE_LINE2":"2 51768  53.2173 211.0040 0001389  51.6039 235.0588 15.54470973  3709","GP_ID":"202030427","RA_OF_ASC_NODE":"211.0040","PERIAPSIS":"402.751","DECAY_DATE":null,"CENTER_NAME":"EARTH","TIME_SYSTEM":"UTC","MEAN_MOTION_DOT":"-0.00716352","OBJECT_NAME":"STARLINK-3622","MEAN_ANOMALY":"235.0588","TLE_LINE1":"1 51768U 22017A   22115.91667824 -.00716352  00000-0 -11698-1 0  9995","REF_FRAME":"TEME","INCLINATION":"53.2173","ARG_OF_PERICENTER":"51.6039","PERIOD":"92.636","REV_AT_EPOCH":"370","SEMIMAJOR_AXIS":"6781.828","OBJECT_ID":"2022-017A","NORAD_CAT_ID":"51768","MEAN_MOTION_DDOT":"0.0000000000000","MEAN_ELEMENT_THEORY":"SGP4","COUNTRY_CODE":"US","ELEMENT_SET_NO":"999","ECCENTRICITY":"0.00013890","EPOCH":"2022-04-25T22:00:00.999936","BSTAR":"-0.01169800000000","LAUNCH_DATE":"2022-02-25"},{"OBJECT_NAME":"STARLINK-3621","MEAN_ANOMALY":"234.6444","TLE_LINE1":"1 51769U 22017B   22115.91667824 -.00716276  00000-0 -11693-1 0  9996","DECAY_DATE":null,"TIME_SYSTEM":"UTC","MEAN_MOTION_DOT":"-0.00716276","CENTER_NAME":"EARTH","TLE_LINE2":"2 51769  53.2173 211.0242 0001358  53.6670 234.6444 15.54479676  3708","GP_ID":"202030602","PERIAPSIS":"402.747","RA_OF_ASC_NODE":"211.0242","RCS_SIZE":"LARGE","EPHEMERIS_TYPE":"0","OBJECT_TYPE":"PAYLOAD","APOAPSIS":"404.589","CLASSIFICATION_TYPE":"U","SITE":"AFWTR","FILE":"3416090","MEAN_MOTION":"15.54479676","EPOCH":"2022-04-25T22:00:00.999936","LAUNCH_DATE":"2022-02-25","BSTAR":"-0.01169300000000","ELEMENT_SET_NO":"999","ECCENTRICITY":"0.00013580","MEAN_ELEMENT_THEORY":"SGP4","COUNTRY_CODE":"US","MEAN_MOTION_DDOT":"0.0000000000000","OBJECT_ID":"2022-017B","NORAD_CAT_ID":"51769","REV_AT_EPOCH":"370","SEMIMAJOR_AXIS":"6781.803","PERIOD":"92.635","ARG_OF_PERICENTER":"53.6670","INCLINATION":"53.2173","REF_FRAME":"TEME"},{"NORAD_CAT_ID":"51770","OBJECT_ID":"2022-017C","SEMIMAJOR_AXIS":"6781.815","REV_AT_EPOCH":"370","PERIOD":"92.636","REF_FRAME":"TEME","ARG_OF_PERICENTER":"43.6101","INCLINATION":"53.2173","BSTAR":"-0.01169400000000","LAUNCH_DATE":"2022-02-25","EPOCH":"2022-04-25T22:00:00.999936","ECCENTRICITY":"0.00015200","ELEMENT_SET_NO":"999","COUNTRY_CODE":"US","MEAN_ELEMENT_THEORY":"SGP4","MEAN_MOTION_DDOT":"0.0000000000000","OBJECT_TYPE":"PAYLOAD","EPHEMERIS_TYPE":"0","APOAPSIS":"404.711","MEAN_MOTION":"15.54475301","FILE":"3416090","SITE":"AFWTR","CLASSIFICATION_TYPE":"U","TLE_LINE1":"1 51770U 22017C   22115.91667824 -.00716256  00000-0 -11694-1 0  9997","MEAN_ANOMALY":"243.8770","OBJECT_NAME":"STARLINK-3612","CENTER_NAME":"EARTH","TIME_SYSTEM":"UTC","MEAN_MOTION_DOT":"-0.00716256","DECAY_DATE":null,"RA_OF_ASC_NODE":"211.0142","PERIAPSIS":"402.649","TLE_LINE2":"2 51770  53.2173 211.0142 0001520  43.6101 243.8770 15.54475301  3703","GP_ID":"202030005","RCS_SIZE":"LARGE"},{"OBJECT_TYPE":"PAYLOAD","EPHEMERIS_TYPE":"0","MEAN_MOTION":"15.54484013","CLASSIFICATION_TYPE":"U","SITE":"AFWTR","FILE":"3416090","APOAPSIS":"404.622","MEAN_MOTION_DOT":"-0.00716338","TIME_SYSTEM":"UTC","CENTER_NAME":"EARTH","DECAY_DATE":null,"TLE_LINE1":"1 51771U 22017D   22115.91667824 -.00716338  00000-0 -11692-1 0  9997","OBJECT_NAME":"STARLINK-3614","MEAN_ANOMALY":"241.0084","RCS_SIZE":"LARGE","PERIAPSIS":"402.688","RA_OF_ASC_NODE":"211.0312","GP_ID":"202030518","TLE_LINE2":"2 51771  53.2173 211.0312 0001426  48.1273 241.0084 15.54484013  3706","SEMIMAJOR_AXIS":"6781.790","REV_AT_EPOCH":"370","NORAD_CAT_ID":"51771","OBJECT_ID":"2022-017D","ARG_OF_PERICENTER":"48.1273","INCLINATION":"53.2173","REF_FRAME":"TEME","PERIOD":"92.635","ECCENTRICITY":"0.00014260","ELEMENT_SET_NO":"999","BSTAR":"-0.01169200000000","LAUNCH_DATE":"2022-02-25","EPOCH":"2022-04-25T22:00:00.999936","MEAN_MOTION_DDOT":"0.0000000000000","COUNTRY_CODE":"US","MEAN_ELEMENT_THEORY":"SGP4"},{"NORAD_CAT_ID":"51772","OBJECT_ID":"2022-017E","SEMIMAJOR_AXIS":"6781.752","REV_AT_EPOCH":"370","PERIOD":"92.634","ARG_OF_PERICENTER":"50.9769","INCLINATION":"53.2173","REF_FRAME":"TEME","LAUNCH_DATE":"2022-02-25","BSTAR":"-0.01168500000000","EPOCH":"2022-04-25T22:00:00.999936","ECCENTRICITY":"0.00013780","ELEMENT_SET_NO":"999","COUNTRY_CODE":"US","MEAN_ELEMENT_THEORY":"SGP4","MEAN_MOTION_DDOT":"0.0000000000000","OBJECT_TYPE":"PAYLOAD","EPHEMERIS_TYPE":"0","APOAPSIS":"404.552","MEAN_MOTION":"15.54496952","CLASSIFICATION_TYPE":"U","FILE":"3416090","SITE":"AFWTR","TLE_LINE1":"1 51772U 22017E   22115.91667824 -.00716249  00000-0 -11685-1 0  9991","OBJECT_NAME":"STARLINK-3623","MEAN_ANOMALY":"240.6315","MEAN_MOTION_DOT":"-0.00716249","TIME_SYSTEM":"UTC","CENTER_NAME":"EARTH","DECAY_DATE":null,"PERIAPSIS":"402.683","RA_OF_ASC_NODE":"211.0529","GP_ID":"202030090","TLE_LINE2":"2 51772  53.2173 211.0529 0001378  50.9769 240.6315 15.54496952  3701","RCS_SIZE":"LARGE"},{"GP_ID":"202030265","TLE_LINE2":"2 51773  53.2173 211.0327 0001323  55.9568 234.0033 15.54488191  3700","PERIAPSIS":"402.746","RA_OF_ASC_NODE":"211.0327","RCS_SIZE":"LARGE","OBJECT_NAME":"STARLINK-3624","MEAN_ANOMALY":"234.0033","TLE_LINE1":"1 51773U 22017F   22115.91667824 -.00716139  00000-0 -11687-1 0  9992","DECAY_DATE":null,"MEAN_MOTION_DOT":"-0.00716139","TIME_SYSTEM":"UTC","CENTER_NAME":"EARTH","APOAPSIS":"404.540","CLASSIFICATION_TYPE":"U","FILE":"3416090","SITE":"AFWTR","MEAN_MOTION":"15.54488191","EPHEMERIS_TYPE":"0","OBJECT_TYPE":"PAYLOAD","MEAN_ELEMENT_THEORY":"SGP4","COUNTRY_CODE":"US","MEAN_MOTION_DDOT":"0.0000000000000","EPOCH":"2022-04-25T22:00:00.999936","BSTAR":"-0.01168700000000","LAUNCH_DATE":"2022-02-25","ELEMENT_SET_NO":"999","ECCENTRICITY":"0.00013230","PERIOD":"92.635","ARG_OF_PERICENTER":"55.9568","INCLINATION":"53.2173","REF_FRAME":"TEME","OBJECT_ID":"2022-017F","NORAD_CAT_ID":"51773","REV_AT_EPOCH":"370","SEMIMAJOR_AXIS":"6781.778"},{"OBJECT_ID":"2022-017G","NORAD_CAT_ID":"51774","REV_AT_EPOCH":"370","SEMIMAJOR_AXIS":"6781.727","PERIOD":"92.634","REF_FRAME":"TEME","ARG_OF_PERICENTER":"43.6152","INCLINATION":"53.2174","EPOCH":"2022-04-25T22:00:00.999936","LAUNCH_DATE":"2022-02-25","BSTAR":"-0.01168400000000","ELEMENT_SET_NO":"999","ECCENTRICITY":"0.00015010","MEAN_ELEMENT_THEORY":"SGP4","COUNTRY_CODE":"US","MEAN_MOTION_DDOT":"0.0000000000000","EPHEMERIS_TYPE":"0","OBJECT_TYPE":"PAYLOAD","APOAPSIS":"404.610","SITE":"AFWTR","FILE":"3416090","CLASSIFICATION_TYPE":"U","MEAN_MOTION":"15.54505769","OBJECT_NAME":"STARLINK-3629","MEAN_ANOMALY":"249.6413","TLE_LINE1":"1 51774U 22017G   22115.91667824 -.00716428  00000-0 -11684-1 0  9991","DECAY_DATE":null,"CENTER_NAME":"EARTH","TIME_SYSTEM":"UTC","MEAN_MOTION_DOT":"-0.00716428","GP_ID":"202030342","TLE_LINE2":"2 51774  53.2174 211.0731 0001501  43.6152 249.6413 15.54505769  3707","RA_OF_ASC_NODE":"211.0731","PERIAPSIS":"402.574","RCS_SIZE":"LARGE"},{"PERIAPSIS":"402.587","RA_OF_ASC_NODE":"211.0428","TLE_LINE2":"2 51775  53.2173 211.0428 0001537  42.7664 248.0178 15.54492681  3706","GP_ID":"202030180","RCS_SIZE":"LARGE","TLE_LINE1":"1 51775U 22017H   22115.91667824 -.00716456  00000-0 -11690-1 0  9990","OBJECT_NAME":"STARLINK-3620","MEAN_ANOMALY":"248.0178","TIME_SYSTEM":"UTC","MEAN_MOTION_DOT":"-0.00716456","CENTER_NAME":"EARTH","DECAY_DATE":null,"APOAPSIS":"404.672","MEAN_MOTION":"15.54492681","CLASSIFICATION_TYPE":"U","SITE":"AFWTR","FILE":"3416090","OBJECT_TYPE":"PAYLOAD","EPHEMERIS_TYPE":"0","COUNTRY_CODE":"US","MEAN_ELEMENT_THEORY":"SGP4","MEAN_MOTION_DDOT":"0.0000000000000","BSTAR":"-0.01169000000000","LAUNCH_DATE":"2022-02-25","EPOCH":"2022-04-25T22:00:00.999936","ECCENTRICITY":"0.00015370","ELEMENT_SET_NO":"999","PERIOD":"92.635","INCLINATION":"53.2173","ARG_OF_PERICENTER":"42.7664","REF_FRAME":"TEME","NORAD_CAT_ID":"51775","OBJECT_ID":"2022-017H","SEMIMAJOR_AXIS":"6781.765","REV_AT_EPOCH":"370"},{"SEMIMAJOR_AXIS":"6781.714","REV_AT_EPOCH":"370","NORAD_CAT_ID":"51776","OBJECT_ID":"2022-017J","REF_FRAME":"TEME","ARG_OF_PERICENTER":"44.7393","INCLINATION":"53.2174","PERIOD":"92.634","ECCENTRICITY":"0.00014680","ELEMENT_SET_NO":"999","BSTAR":"-0.01168000000000","LAUNCH_DATE":"2022-02-25","EPOCH":"2022-04-25T22:00:00.999936","MEAN_MOTION_DDOT":"0.0000000000000","COUNTRY_CODE":"US","MEAN_ELEMENT_THEORY":"SGP4","OBJECT_TYPE":"PAYLOAD","EPHEMERIS_TYPE":"0","MEAN_MOTION":"15.54510089","SITE":"AFWTR","FILE":"3416090","CLASSIFICATION_TYPE":"U","APOAPSIS":"404.575","CENTER_NAME":"EARTH","TIME_SYSTEM":"UTC","MEAN_MOTION_DOT":"-0.00716302","DECAY_DATE":null,"TLE_LINE1":"1 51776U 22017J   22115.91667824 -.00716302  00000-0 -11680-1 0  9990","OBJECT_NAME":"STARLINK-3608","MEAN_ANOMALY":"249.3412","RCS_SIZE":"LARGE","RA_OF_ASC_NODE":"211.0832","PERIAPSIS":"402.584","GP_ID":"202030428","TLE_LINE2":"2 51776  53.2174 211.0832 0001468  44.7393 249.3412 15.54510089  3709"}];
